{
  "type": "FeatureCollection",
  "name": "Apda-Mitra Evacuation Road Corridors",
  "crs": { "type": "name", "properties": { "name": "urn:ogc:def:crs:OGC:1.3:CRS84" } },
  "features": [
    {
      "type": "Feature",
      "properties": {
        "id": "rd-01",
        "name": "NH-766 / SH-54 Primary Evacuation Corridor",
        "nameHi": "राष्ट्रीय राजमार्ग 766 प्राथमिक निकासी मार्ग",
        "category": "Evacuation Route",
        "risk_level": "safe",
        "status": "Clear & Priority Clearance",
        "stroke_weight": 4.5,
        "description": "Multi-lane arterial highway designated for emergency logistics, heavy ambulances, and rescue convoys.",
        "source": "State Public Works Department (PWD)",
        "updated_at": "Traffic Command Telemetry"
      },
      "geometry": {
        "type": "LineString",
        "coordinates": [
          [76.0850, 11.6420],
          [76.1020, 11.6610],
          [76.1200, 11.6780],
          [76.1380, 11.6920],
          [76.1600, 11.7150],
          [76.1820, 11.7380]
        ]
      }
    },
    {
      "type": "Feature",
      "properties": {
        "id": "rd-02",
        "name": "Meppadi - Chooralmala Ghat Secondary Access Road",
        "nameHi": "मेप्पाडी-चूरलमला द्वितीयक मार्ग",
        "category": "Evacuation Route",
        "risk_level": "moderate",
        "status": "Caution - Single Lane Operating",
        "stroke_weight": 3.5,
        "dash_array": "6, 6",
        "description": "Partial single-lane transit. Army engineering units operating Bailey bridge connector.",
        "source": "State PWD & Border Roads Org",
        "updated_at": "Traffic Command Telemetry"
      },
      "geometry": {
        "type": "LineString",
        "coordinates": [
          [76.1150, 11.6620],
          [76.1280, 11.6740],
          [76.1410, 11.6810],
          [76.1520, 11.6930]
        ]
      }
    },
    {
      "type": "Feature",
      "properties": {
        "id": "rd-03",
        "name": "Mundakkai High-Elevation Link Path",
        "nameHi": "मुंडक्कई पहाड़ी संपर्क मार्ग",
        "category": "Evacuation Route",
        "risk_level": "critical",
        "status": "Blocked - Bridge Washed Away",
        "stroke_weight": 4,
        "description": "Road washed out by flash floods and debris. Closed to all civilian vehicles.",
        "source": "District Police Traffic Cell",
        "updated_at": "Traffic Command Telemetry"
      },
      "geometry": {
        "type": "LineString",
        "coordinates": [
          [76.1320, 11.6980],
          [76.1390, 11.7050],
          [76.1450, 11.7140]
        ]
      }
    }
  ]
}
